STARLINK-36800          
1 67797U 26032A   26071.80637883  .00185641  00000+0  12148-2 0  9990
2 67797  97.2842 258.4418 0001595  61.4625 298.6800 15.75263027  5271
STARLINK-36798          
1 67798U 26032B   26071.79014767  .00256817  00000+0  16643-2 0  9997
2 67798  97.2840 258.4644 0001349 117.3588 242.7815 15.75288863  5278
STARLINK-36804          
1 67799U 26032C   26071.80461527  .00184177  00000+0  12056-2 0  9993
2 67799  97.2840 258.4441 0001531  67.4846 292.6581 15.75258531  5272
STARLINK-36354          
1 67800U 26032D   26071.79367594  .00163453  00000+0  10730-2 0  9994
2 67800  97.2842 258.4609 0001797  82.5648 277.5821 15.75252411  5275
STARLINK-36773          
1 67801U 26032E   26071.80144002  .00168733  00000+0  11067-2 0  9994
2 67801  97.2840 258.4484 0001870  79.4227 280.7249 15.75257283  5277
STARLINK-36739          
1 67802U 26032F   26071.78308911  .00150801  00000+0  99150-3 0  9990
2 67802  97.2845 258.4737 0001520  94.9585 265.1854 15.75251647  5272
STARLINK-36768          
1 67803U 26032G   26071.79543726  .00202977  00000+0  13280-2 0  9998
2 67803  97.2840 258.4561 0001415  84.7611 275.3816 15.75218304  5277
STARLINK-36792          
1 67804U 26032H   26071.79791073  .00182451  00000+0  11948-2 0  9992
2 67804  97.2838 258.4522 0001427  94.7993 265.3435 15.75254662  5272
STARLINK-36782          
1 67805U 26032J   26071.77321035  .00105469  00000+0  69850-3 0  9998
2 67805  97.2846 258.4863 0001739  73.5933 286.5523 15.75215323  5279
STARLINK-36389          
1 67806U 26032K   26071.78661752  .00156833  00000+0  10302-2 0  9991
2 67806  97.2836 258.4669 0001829 100.9110 259.2361 15.75255910  5278
STARLINK-36382          
1 67807U 26032L   26071.78449919  .00170854  00000+0  11204-2 0  9992
2 67807  97.2838 258.4694 0001702  90.4663 269.6797 15.75255975  5274
STARLINK-36811          
1 67808U 26032M   26071.77462049  .00241808  00000+0  15708-2 0  9992
2 67808  97.2845 258.4840 0001574  70.2147 289.9288 15.75275469  5276
STARLINK-36795          
1 67809U 26032N   26071.79155796  .00258874  00000+0  16772-2 0  9996
2 67809  97.2835 258.4597 0001220  87.4132 272.7273 15.75288975  5277
STARLINK-36807          
1 67810U 26032P   26071.77569299  .00336331  00000+0  21545-2 0  9992
2 67810  97.2844 258.4815 0001321  78.2430 281.8983 15.75335959  5277
STARLINK-36733          
1 67811U 26032Q   26071.83335647  .00081716  00000+0  54493-3 0  9991
2 67811  97.2845 258.5641 0001244  95.9174 285.0877 15.75129616  5282
STARLINK-36377          
1 67812U 26032R   26071.82720784  .00114417  00000+0  75641-3 0  9994
2 67812  97.2849 258.5642 0001959  87.9949 272.1541 15.75229644  5289
STARLINK-36732          
1 67813U 26032S   26071.76862151  .00217769  00000+0  14191-2 0  9999
2 67813  97.2849 258.4897 0001788  64.7266 295.4185 15.75269398  5277
