[{"OBJECT_NAME":"STARLINK-36800","OBJECT_ID":"2026-032A","EPOCH":"2026-03-12T19:21:11.130912","MEAN_MOTION":15.75263027,"ECCENTRICITY":0.0001595,"INCLINATION":97.2842,"RA_OF_ASC_NODE":258.4418,"ARG_OF_PERICENTER":61.4625,"MEAN_ANOMALY":298.68,"EPHEMERIS_TYPE":0,"CLASSIFICATION_TYPE":"U","NORAD_CAT_ID":67797,"ELEMENT_SET_NO":999,"REV_AT_EPOCH":527,"BSTAR":0.0012148,"MEAN_MOTION_DOT":0.00185641,"MEAN_MOTION_DDOT":0},{"OBJECT_NAME":"STARLINK-36798","OBJECT_ID":"2026-032B","EPOCH":"2026-03-12T18:57:48.758688","MEAN_MOTION":15.75288863,"ECCENTRICITY":0.0001349,"INCLINATION":97.284,"RA_OF_ASC_NODE":258.4644,"ARG_OF_PERICENTER":117.3588,"MEAN_ANOMALY":242.7815,"EPHEMERIS_TYPE":0,"CLASSIFICATION_TYPE":"U","NORAD_CAT_ID":67798,"ELEMENT_SET_NO":999,"REV_AT_EPOCH":527,"BSTAR":0.0016643,"MEAN_MOTION_DOT":0.00256817,"MEAN_MOTION_DDOT":0},{"OBJECT_NAME":"STARLINK-36804","OBJECT_ID":"2026-032C","EPOCH":"2026-03-12T19:18:38.759328","MEAN_MOTION":15.75258531,"ECCENTRICITY":0.0001531,"INCLINATION":97.284,"RA_OF_ASC_NODE":258.4441,"ARG_OF_PERICENTER":67.4846,"MEAN_ANOMALY":292.6581,"EPHEMERIS_TYPE":0,"CLASSIFICATION_TYPE":"U","NORAD_CAT_ID":67799,"ELEMENT_SET_NO":999,"REV_AT_EPOCH":527,"BSTAR":0.0012056,"MEAN_MOTION_DOT":0.00184177,"MEAN_MOTION_DDOT":0},{"OBJECT_NAME":"STARLINK-36354","OBJECT_ID":"2026-032D","EPOCH":"2026-03-12T19:02:53.601216","MEAN_MOTION":15.75252411,"ECCENTRICITY":0.0001797,"INCLINATION":97.2842,"RA_OF_ASC_NODE":258.4609,"ARG_OF_PERICENTER":82.5648,"MEAN_ANOMALY":277.5821,"EPHEMERIS_TYPE":0,"CLASSIFICATION_TYPE":"U","NORAD_CAT_ID":67800,"ELEMENT_SET_NO":999,"REV_AT_EPOCH":527,"BSTAR":0.001073,"MEAN_MOTION_DOT":0.00163453,"MEAN_MOTION_DDOT":0},{"OBJECT_NAME":"STARLINK-36773","OBJECT_ID":"2026-032E","EPOCH":"2026-03-12T19:14:04.417728","MEAN_MOTION":15.75257283,"ECCENTRICITY":0.000187,"INCLINATION":97.284,"RA_OF_ASC_NODE":258.4484,"ARG_OF_PERICENTER":79.4227,"MEAN_ANOMALY":280.7249,"EPHEMERIS_TYPE":0,"CLASSIFICATION_TYPE":"U","NORAD_CAT_ID":67801,"ELEMENT_SET_NO":999,"REV_AT_EPOCH":527,"BSTAR":0.0011067,"MEAN_MOTION_DOT":0.00168733,"MEAN_MOTION_DDOT":0},{"OBJECT_NAME":"STARLINK-36739","OBJECT_ID":"2026-032F","EPOCH":"2026-03-12T18:47:38.899104","MEAN_MOTION":15.75251647,"ECCENTRICITY":0.000152,"INCLINATION":97.2845,"RA_OF_ASC_NODE":258.4737,"ARG_OF_PERICENTER":94.9585,"MEAN_ANOMALY":265.1854,"EPHEMERIS_TYPE":0,"CLASSIFICATION_TYPE":"U","NORAD_CAT_ID":67802,"ELEMENT_SET_NO":999,"REV_AT_EPOCH":527,"BSTAR":0.0009915,"MEAN_MOTION_DOT":0.00150801,"MEAN_MOTION_DDOT":0},{"OBJECT_NAME":"STARLINK-36768","OBJECT_ID":"2026-032G","EPOCH":"2026-03-12T19:05:25.779264","MEAN_MOTION":15.75218304,"ECCENTRICITY":0.0001415,"INCLINATION":97.284,"RA_OF_ASC_NODE":258.4561,"ARG_OF_PERICENTER":84.7611,"MEAN_ANOMALY":275.3816,"EPHEMERIS_TYPE":0,"CLASSIFICATION_TYPE":"U","NORAD_CAT_ID":67803,"ELEMENT_SET_NO":999,"REV_AT_EPOCH":527,"BSTAR":0.001328,"MEAN_MOTION_DOT":0.00202977,"MEAN_MOTION_DDOT":0},{"OBJECT_NAME":"STARLINK-36792","OBJECT_ID":"2026-032H","EPOCH":"2026-03-12T19:08:59.487072","MEAN_MOTION":15.75254662,"ECCENTRICITY":0.0001427,"INCLINATION":97.2838,"RA_OF_ASC_NODE":258.4522,"ARG_OF_PERICENTER":94.7993,"MEAN_ANOMALY":265.3435,"EPHEMERIS_TYPE":0,"CLASSIFICATION_TYPE":"U","NORAD_CAT_ID":67804,"ELEMENT_SET_NO":999,"REV_AT_EPOCH":527,"BSTAR":0.0011948,"MEAN_MOTION_DOT":0.00182451,"MEAN_MOTION_DDOT":0},{"OBJECT_NAME":"STARLINK-36782","OBJECT_ID":"2026-032J","EPOCH":"2026-03-12T18:33:25.374240","MEAN_MOTION":15.75215323,"ECCENTRICITY":0.0001739,"INCLINATION":97.2846,"RA_OF_ASC_NODE":258.4863,"ARG_OF_PERICENTER":73.5933,"MEAN_ANOMALY":286.5523,"EPHEMERIS_TYPE":0,"CLASSIFICATION_TYPE":"U","NORAD_CAT_ID":67805,"ELEMENT_SET_NO":999,"REV_AT_EPOCH":527,"BSTAR":0.0006985,"MEAN_MOTION_DOT":0.00105469,"MEAN_MOTION_DDOT":0},{"OBJECT_NAME":"STARLINK-36389","OBJECT_ID":"2026-032K","EPOCH":"2026-03-12T18:52:43.753728","MEAN_MOTION":15.7525591,"ECCENTRICITY":0.0001829,"INCLINATION":97.2836,"RA_OF_ASC_NODE":258.4669,"ARG_OF_PERICENTER":100.911,"MEAN_ANOMALY":259.2361,"EPHEMERIS_TYPE":0,"CLASSIFICATION_TYPE":"U","NORAD_CAT_ID":67806,"ELEMENT_SET_NO":999,"REV_AT_EPOCH":527,"BSTAR":0.0010302,"MEAN_MOTION_DOT":0.00156833,"MEAN_MOTION_DDOT":0},{"OBJECT_NAME":"STARLINK-36382","OBJECT_ID":"2026-032L","EPOCH":"2026-03-12T18:49:40.730016","MEAN_MOTION":15.75255975,"ECCENTRICITY":0.0001702,"INCLINATION":97.2838,"RA_OF_ASC_NODE":258.4694,"ARG_OF_PERICENTER":90.4663,"MEAN_ANOMALY":269.6797,"EPHEMERIS_TYPE":0,"CLASSIFICATION_TYPE":"U","NORAD_CAT_ID":67807,"ELEMENT_SET_NO":999,"REV_AT_EPOCH":527,"BSTAR":0.0011204,"MEAN_MOTION_DOT":0.00170854,"MEAN_MOTION_DDOT":0},{"OBJECT_NAME":"STARLINK-36811","OBJECT_ID":"2026-032M","EPOCH":"2026-03-12T18:35:27.210336","MEAN_MOTION":15.75275469,"ECCENTRICITY":0.0001574,"INCLINATION":97.2845,"RA_OF_ASC_NODE":258.484,"ARG_OF_PERICENTER":70.2147,"MEAN_ANOMALY":289.9288,"EPHEMERIS_TYPE":0,"CLASSIFICATION_TYPE":"U","NORAD_CAT_ID":67808,"ELEMENT_SET_NO":999,"REV_AT_EPOCH":527,"BSTAR":0.0015708,"MEAN_MOTION_DOT":0.00241808,"MEAN_MOTION_DDOT":0},{"OBJECT_NAME":"STARLINK-36795","OBJECT_ID":"2026-032N","EPOCH":"2026-03-12T18:59:50.607744","MEAN_MOTION":15.75288975,"ECCENTRICITY":0.000122,"INCLINATION":97.2835,"RA_OF_ASC_NODE":258.4597,"ARG_OF_PERICENTER":87.4132,"MEAN_ANOMALY":272.7273,"EPHEMERIS_TYPE":0,"CLASSIFICATION_TYPE":"U","NORAD_CAT_ID":67809,"ELEMENT_SET_NO":999,"REV_AT_EPOCH":527,"BSTAR":0.0016772,"MEAN_MOTION_DOT":0.00258874,"MEAN_MOTION_DDOT":0},{"OBJECT_NAME":"STARLINK-36807","OBJECT_ID":"2026-032P","EPOCH":"2026-03-12T18:36:59.874336","MEAN_MOTION":15.75335959,"ECCENTRICITY":0.0001321,"INCLINATION":97.2844,"RA_OF_ASC_NODE":258.4815,"ARG_OF_PERICENTER":78.243,"MEAN_ANOMALY":281.8983,"EPHEMERIS_TYPE":0,"CLASSIFICATION_TYPE":"U","NORAD_CAT_ID":67810,"ELEMENT_SET_NO":999,"REV_AT_EPOCH":527,"BSTAR":0.0021545,"MEAN_MOTION_DOT":0.00336331,"MEAN_MOTION_DDOT":0},{"OBJECT_NAME":"STARLINK-36733","OBJECT_ID":"2026-032Q","EPOCH":"2026-03-12T20:00:01.999008","MEAN_MOTION":15.75129616,"ECCENTRICITY":0.0001244,"INCLINATION":97.2845,"RA_OF_ASC_NODE":258.5641,"ARG_OF_PERICENTER":95.9174,"MEAN_ANOMALY":285.0877,"EPHEMERIS_TYPE":0,"CLASSIFICATION_TYPE":"U","NORAD_CAT_ID":67811,"ELEMENT_SET_NO":999,"REV_AT_EPOCH":528,"BSTAR":0.00054493,"MEAN_MOTION_DOT":0.00081716,"MEAN_MOTION_DDOT":0},{"OBJECT_NAME":"STARLINK-36377","OBJECT_ID":"2026-032R","EPOCH":"2026-03-12T19:51:10.757376","MEAN_MOTION":15.75229644,"ECCENTRICITY":0.0001959,"INCLINATION":97.2849,"RA_OF_ASC_NODE":258.5642,"ARG_OF_PERICENTER":87.9949,"MEAN_ANOMALY":272.1541,"EPHEMERIS_TYPE":0,"CLASSIFICATION_TYPE":"U","NORAD_CAT_ID":67812,"ELEMENT_SET_NO":999,"REV_AT_EPOCH":528,"BSTAR":0.00075641,"MEAN_MOTION_DOT":0.00114417,"MEAN_MOTION_DDOT":0},{"OBJECT_NAME":"STARLINK-36732","OBJECT_ID":"2026-032S","EPOCH":"2026-03-12T18:26:48.898464","MEAN_MOTION":15.75269398,"ECCENTRICITY":0.0001788,"INCLINATION":97.2849,"RA_OF_ASC_NODE":258.4897,"ARG_OF_PERICENTER":64.7266,"MEAN_ANOMALY":295.4185,"EPHEMERIS_TYPE":0,"CLASSIFICATION_TYPE":"U","NORAD_CAT_ID":67813,"ELEMENT_SET_NO":999,"REV_AT_EPOCH":527,"BSTAR":0.0014191,"MEAN_MOTION_DOT":0.00217769,"MEAN_MOTION_DDOT":0}]
